[{"OBJECT_NAME":"LEMUR-2-PETERG","OBJECT_ID":"2017-042S","EPOCH":"2026-03-09T11:34:35.656032","MEAN_MOTION":15.29611459,"ECCENTRICITY":0.00037,"INCLINATION":97.398,"RA_OF_ASC_NODE":253.6596,"ARG_OF_PERICENTER":341.6938,"MEAN_ANOMALY":18.4169,"EPHEMERIS_TYPE":0,"CLASSIFICATION_TYPE":"U","NORAD_CAT_ID":42841,"ELEMENT_SET_NO":999,"REV_AT_EPOCH":47317,"BSTAR":0.00081076471,"MEAN_MOTION_DOT":0.0002324,"MEAN_MOTION_DDOT":0},{"OBJECT_NAME":"STARLINK-31515","OBJECT_ID":"2024-068X","EPOCH":"2026-03-09T07:14:07.901376","MEAN_MOTION":15.27574601,"ECCENTRICITY":0.00011981,"INCLINATION":43.0066,"RA_OF_ASC_NODE":36.6784,"ARG_OF_PERICENTER":237.9446,"MEAN_ANOMALY":122.1289,"EPHEMERIS_TYPE":0,"CLASSIFICATION_TYPE":"U","NORAD_CAT_ID":59476,"ELEMENT_SET_NO":999,"REV_AT_EPOCH":10846,"BSTAR":-1.4158144e-5,"MEAN_MOTION_DOT":-6.52e-6,"MEAN_MOTION_DDOT":0}]
